OBJECT_NAME,OBJECT_ID,EPOCH,MEAN_MOTION,ECCENTRICITY,INCLINATION,RA_OF_ASC_NODE,ARG_OF_PERICENTER,MEAN_ANOMALY,EPHEMERIS_TYPE,CLASSIFICATION_TYPE,NORAD_CAT_ID,ELEMENT_SET_NO,REV_AT_EPOCH,BSTAR,MEAN_MOTION_DOT,MEAN_MOTION_DDOT
HAWK-10B,2024-149CF,2026-06-14T03:51:16.807680,14.96506814,.00070212,97.6816,240.4821,101.1871,259.0140,0,U,60545,999,9953,.18370468E-3,.2031E-4,0
ICEYE-X39,2024-149CG,2026-06-14T11:24:12.921120,14.99881546,.0004984,97.6767,242.5354,125.7268,234.4420,0,U,60546,999,9971,.26263E-3,.3197E-4,0
UMBRA-10,2024-149CH,2026-06-14T07:09:46.878336,15.17967789,.000078,97.6987,252.4818,72.0316,288.1003,0,U,60547,999,10029,.77016E-3,.15596E-3,0
ICEYE-X33,2024-149CJ,2026-06-14T04:03:24.780384,15.00936114,.0001611,97.7275,244.3258,100.4108,259.7297,0,U,60548,999,9975,.37023656E-3,.4659E-4,0
ICEYE-X40,2024-149CK,2026-06-14T03:54:41.579136,14.97929015,.00066148,97.6814,241.7069,90.7141,269.4839,0,U,60549,999,9962,.20932917E-3,.241E-4,0
SATELIOT_1,2024-149CL,2026-06-14T05:18:32.752224,14.98054855,.0008371,97.6747,241.1678,89.2729,270.9452,0,U,60550,999,9962,.22107E-3,.2557E-4,0
BRO-14,2024-149CM,2026-06-14T04:27:31.131072,14.96172072,.0008105,97.6876,241.0175,104.2682,255.9440,0,U,60551,999,9954,.62646729E-4,.649E-5,0
SATELIOT_3,2024-149CN,2026-06-14T11:08:20.545152,14.98044230,.0005931,97.6820,242.1968,92.5426,267.6476,0,U,60552,999,9967,.15126E-3,.173E-4,0
BRO-15,2024-149CP,2026-06-14T04:02:12.510240,14.96150646,.0009589,97.6808,240.6040,96.9395,263.2917,0,U,60553,999,9955,.11519E-3,.1241E-4,0
UM5-RIBAT,2024-149CQ,2026-06-14T11:20:16.782144,15.01062506,.0003657,97.6642,243.3093,66.0041,294.1565,0,U,60554,999,9978,.23411E-3,.2934E-4,0
UM5-EOSAT,2024-149CR,2026-06-14T04:09:12.100608,15.01507437,.00087128,97.6703,243.9442,123.6371,236.5686,0,U,60555,999,9976,.32243803E-3,.4114E-4,0
LASARSAT,2024-247Q,2026-06-13T14:48:20.082240,15.46168743,.0008375,44.9751,282.2745,311.5212,48.4959,0,U,62391,999,8276,.65515E-3,.32689E-3,0
CROCUBE,2024-247T,2026-06-14T10:59:24.895392,15.48097548,.0008185,44.9722,274.9271,319.8602,40.1684,0,U,62394,999,8292,.70687E-3,.37784E-3,0
TEVEL2-4,2025-052D,2026-06-14T05:56:56.399136,15.34521114,.0004817,97.3916,61.6351,109.6731,250.5032,0,U,63213,999,6966,.56859E-3,.18966E-3,0
TEVEL2-5,2025-052E,2026-06-14T11:07:43.260096,15.34355748,.0004726,97.3913,61.8001,110.0709,250.1043,0,U,63214,999,6969,.55029E-3,.18255E-3,0
TEVEL2-6,2025-052F,2026-06-14T06:43:38.807328,15.34313968,.0004644,97.3919,61.6008,110.4903,249.6839,0,U,63215,999,6966,.5622E-3,.18628E-3,0
TEVEL2-1,2025-052H,2026-06-14T10:31:53.175360,15.33788799,.0004657,97.3887,61.3872,119.1952,240.9757,0,U,63217,999,6967,.53395E-3,.17394E-3,0
TEVEL2-3,2025-052J,2026-06-14T05:42:29.139264,15.33837086,.0004602,97.3893,61.2078,119.3991,240.7711,0,U,63218,999,6964,.54634E-3,.17827E-3,0
TEVEL2-2,2025-052K,2026-06-14T10:32:21.607872,15.33796885,.000465,97.3889,61.3900,119.9799,240.1905,0,U,63219,999,6967,.53565E-3,.17454E-3,0
TEVEL2-9,2025-052AD,2026-06-14T06:46:36.615072,15.31820596,.0007557,97.3950,60.6144,138.8374,221.3439,0,U,63237,999,6958,.53265E-3,.16318E-3,0
TEVEL2-7,2025-052AE,2026-06-14T12:26:58.190784,15.31532651,.0007669,97.3954,60.7678,138.7372,221.4450,0,U,63238,999,6961,.49572E-3,.15043E-3,0
TEVEL2-8,2025-052AF,2026-06-14T11:04:43.668192,15.31515493,.0007686,97.3953,60.6877,139.5843,220.5971,0,U,63239,999,6960,.52562E-3,.15949E-3,0
FORESAIL-1 PRIME,2025-276DS,2026-06-14T03:55:15.060864,15.18676939,.00039127,97.4203,238.4891,109.6955,250.4701,0,U,66778,999,2994,.24279032E-3,.4967E-4,0
